"spkid","full_name","pdes","name","prefix","neo","pha","sats","H","G","M1","M2","K1","K2","PC","diameter","extent","albedo","rot_per","GM","BV","UB","IR","spec_B","spec_T","H_sigma","diameter_sigma","orbit_id","epoch","epoch_mjd","epoch_cal","equinox","e","a","q","i","om","w","ma","ad","n","tp","tp_cal","per","per_y","moid","moid_ld","moid_jup","t_jup","sigma_e","sigma_a","sigma_q","sigma_i","sigma_om","sigma_w","sigma_ma","sigma_ad","sigma_n","sigma_tp","sigma_per","class","producer","data_arc","first_obs","last_obs","n_obs_used","n_del_obs_used","n_dop_obs_used","condition_code","rms","two_body","A1","A1_sigma","A2","A2_sigma","A3","A3_sigma","DT","DT_sigma"
1002003,"     C/2003 T11 (SOHO)","2003 T11",SOHO,C,,,0,,,,,,,,,,,,,,,,,,,,SAO_2008,2452928.4,52928,2003-10-15.8,J2000,1.0000,,0.005,146.04,4.99,88.39,,,,2452928.35,2003-10-15.8,,,,,,,,,,,,,,,,,,PAR,,0,2003-10-15,2003-10-15,8,,,,,T,,,,,,,,
1002005,"     C/2003 U4 (SOHO)","2003 U4",SOHO,C,,,0,,,,,,,,,,,,,,,,,,,,SAO_2008,2452933.7,52933,2003-10-21.2,J2000,1.0000,,0.036,74.94,73.97,58.38,,,,2452933.71,2003-10-21.2,,,,,,,,,,,,,,,,,,PAR,,0,2003-10-21,2003-10-21,10,,,,,T,,,,,,,,
1002006,"     C/2003 U5 (SOHO)","2003 U5",SOHO,C,,,0,,,,,,,,,,,,,,,,,,,,SAO_2008,2452929.8,52929,2003-10-17.3,J2000,1.0000,,0.005,144.60,8.93,85.74,,,,2452929.84,2003-10-17.3,,,,,,,,,,,,,,,,,,PAR,,1,2003-10-16,2003-10-17,7,,,,,T,,,,,,,,
1002007,"     C/2003 U6 (SOHO)","2003 U6",SOHO,C,,,0,,,,,,,,,,,,,,,,,,,,SAO_2008,2452934.1,52934,2003-10-21.5,J2000,1.0000,,0.005,144.48,9.07,87.14,,,,2452934.07,2003-10-21.5,,,,,,,,,,,,,,,,,,PAR,,1,2003-10-20,2003-10-21,37,,,,,T,,,,,,,,
1002008,"     C/2003 U7 (SOHO)","2003 U7",SOHO,C,,,0,,,,,,,,,,,,,,,,,,,,SAO_2008,2452935.9,52935,2003-10-23.4,J2000,1.0000,,0.005,144.44,12.13,88.13,,,,2452935.93,2003-10-23.4,,,,,,,,,,,,,,,,,,PAR,,0,2003-10-23,2003-10-23,6,,,,,T,,,,,,,,
1002009,"     C/2003 U8 (SOHO)","2003 U8",SOHO,C,,,0,,,,,,,,,,,,,,,,,,,,SAO_2008,2452938.6,52938,2003-10-26.0,J2000,1.0000,,0.005,137.65,294.41,36.51,,,,2452938.56,2003-10-26.0,,,,,,,,,,,,,,,,,,PAR,,0,2003-10-25,2003-10-25,5,,,,,T,,,,,,,,
1002010,"     C/2003 U9 (SOHO)","2003 U9",SOHO,C,,,0,,,,,,,,,,,,,,,,,,,,SAO_2008,2452940.8,52940,2003-10-28.3,J2000,1.0000,,0.005,144.22,10.76,86.95,,,,2452940.80,2003-10-28.3,,,,,,,,,,,,,,,,,,PAR,,2,2003-10-26,2003-10-28,66,,,,,T,,,,,,,,
1002011,"     C/2003 V2 (SOHO)","2003 V2",SOHO,C,,,0,,,,,,,,,,,,,,,,,,,,SAO_2008,2452945.7,52945,2003-11-02.2,J2000,1.0000,,0.005,145.16,9.93,89.43,,,,2452945.74,2003-11-02.2,,,,,,,,,,,,,,,,,,PAR,,0,2003-11-01,2003-11-01,5,,,,,T,,,,,,,,
1002012,"     C/2003 V3 (SOHO)","2003 V3",SOHO,C,,,0,,,,,,,,,,,,,,,,,,,,SAO_2008,2452947.9,52947,2003-11-04.3,J2000,1.0000,,0.005,144.30,9.67,87.39,,,,2452947.86,2003-11-04.3,,,,,,,,,,,,,,,,,,PAR,,1,2003-11-03,2003-11-04,28,,,,,T,,,,,,,,
1002013,"     C/2003 V4 (SOHO)","2003 V4",SOHO,C,,,0,,,,,,,,,,,,,,,,,,,,SAO_2008,2452948.8,52948,2003-11-05.3,J2000,1.0000,,0.005,145.14,9.22,88.06,,,,2452948.82,2003-11-05.3,,,,,,,,,,,,,,,,,,PAR,,1,2003-11-04,2003-11-05,6,,,,,T,,,,,,,,
1002014,"     C/2003 V5 (SOHO)","2003 V5",SOHO,C,,,0,,,,,,,,,,,,,,,,,,,,SAO_2008,2452950.3,52950,2003-11-06.8,J2000,1.0000,,0.008,136.94,332.92,58.04,,,,2452950.33,2003-11-06.8,,,,,,,,,,,,,,,,,,PAR,,1,2003-11-05,2003-11-06,64,,,,,T,,,,,,,,
1002015,"     C/2003 V6 (SOHO)","2003 V6",SOHO,C,,,0,,,,,,,,,,,,,,,,,,,,SAO_2008,2452953.4,52953,2003-11-09.9,J2000,1.0000,,0.005,145.14,7.73,85.78,,,,2452953.43,2003-11-09.9,,,,,,,,,,,,,,,,,,PAR,,0,2003-11-09,2003-11-09,8,,,,,T,,,,,,,,
1002016,"     C/2003 V7 (SOHO)","2003 V7",SOHO,C,,,0,,,,,,,,,,,,,,,,,,,,SAO_2008,2452955.7,52955,2003-11-12.2,J2000,1.0000,,0.005,144.42,357.95,76.08,,,,2452955.74,2003-11-12.2,,,,,,,,,,,,,,,,,,PAR,,0,2003-11-11,2003-11-11,4,,,,,T,,,,,,,,
1002017,"     C/2003 V8 (SOHO)","2003 V8",SOHO,C,,,0,,,,,,,,,,,,,,,,,,,,SAO_2008,2452958.2,52958,2003-11-14.7,J2000,1.0000,,0.005,143.31,11.75,87.59,,,,2452958.21,2003-11-14.7,,,,,,,,,,,,,,,,,,PAR,,1,2003-11-13,2003-11-14,46,,,,,T,,,,,,,,
1002018,"     C/2003 W2 (SOHO)","2003 W2",SOHO,C,,,0,,,,,,,,,,,,,,,,,,,,SAO_2008,2452973.4,52973,2003-11-29.9,J2000,1.0000,,0.031,73.26,74.96,56.53,,,,2452973.42,2003-11-29.9,,,,,,,,,,,,,,,,,,PAR,,1,2003-11-29,2003-11-30,26,,,,,T,,,,,,,,
1002019,"     C/2003 W3 (SOHO)","2003 W3",SOHO,C,,,0,,,,,,,,,,,,,,,,,,,,SAO_2008,2452960.4,52960,2003-11-16.9,J2000,1.0000,,0.005,142.21,11.32,86.83,,,,2452960.41,2003-11-16.9,,,,,,,,,,,,,,,,,,PAR,,0,2003-11-16,2003-11-16,8,,,,,T,,,,,,,,
1002020,"     C/2003 W4 (SOHO)","2003 W4",SOHO,C,,,0,,,,,,,,,,,,,,,,,,,,SAO_2008,2452965.6,52965,2003-11-22.1,J2000,1.0000,,0.005,140.98,18.15,91.67,,,,2452965.63,2003-11-22.1,,,,,,,,,,,,,,,,,,PAR,,0,2003-11-21,2003-11-21,8,,,,,T,,,,,,,,
1002021,"     C/2003 W5 (SOHO)","2003 W5",SOHO,C,,,0,,,,,,,,,,,,,,,,,,,,SAO_2008,2452966.7,52966,2003-11-23.2,J2000,1.0000,,0.007,144.58,8.51,87.18,,,,2452966.70,2003-11-23.2,,,,,,,,,,,,,,,,,,PAR,,0,2003-11-22,2003-11-22,7,,,,,T,,,,,,,,
1002022,"     C/2003 W6 (SOHO)","2003 W6",SOHO,C,,,0,,,,,,,,,,,,,,,,,,,,SAO_2008,2452970.9,52970,2003-11-27.3,J2000,1.0000,,0.005,144.51,9.27,87.55,,,,2452970.88,2003-11-27.3,,,,,,,,,,,,,,,,,,PAR,,2,2003-11-25,2003-11-27,77,,,,,T,,,,,,,,
1002023,"     C/2003 W7 (SOHO)","2003 W7",SOHO,C,,,0,,,,,,,,,,,,,,,,,,,,SAO_2008,2452971.2,52971,2003-11-27.7,J2000,1.0000,,0.005,144.50,6.62,84.73,,,,2452971.21,2003-11-27.7,,,,,,,,,,,,,,,,,,PAR,,0,2003-11-27,2003-11-27,8,,,,,T,,,,,,,,
1002024,"     C/2003 W8 (SOHO)","2003 W8",SOHO,C,,,0,,,,,,,,,,,,,,,,,,,,SAO_2008,2452973.1,52973,2003-11-29.6,J2000,1.0000,,0.005,118.30,35.43,82.24,,,,2452973.15,2003-11-29.6,,,,,,,,,,,,,,,,,,PAR,,0,2003-11-29,2003-11-29,6,,,,,T,,,,,,,,
1000474,"     C/2003 WT42 (LINEAR)","2003 WT42",LINEAR,C,,,0,,,6.2,9.1,8.5,5.,0.03,,,,3.31,,,,,,,,,"JPL 152",2453834.5,53834,2006-04-09.0,J2000,1.0026,-2009,5.191,31.41,48.45,92.47,-0.00,,1.095e-05,2453836.26,2006-04-10.7,,,4.38,1.7e+03,1.94,,3.0e-06,2.3e+00,2.0e-06,5.3e-06,1.4e-05,3.5e-05,3.1e-08,,1.9e-08,3.2e-04,,HYP,"Otto Matic",1592,2003-10-30,2008-03-09,2466,,,,.69656,,,,,,,,,
1002025,"     C/2003 X1 (SOHO)","2003 X1",SOHO,C,,,0,,,,,,,,,,,,,,,,,,,,SAO_2008,2452975.1,52975,2003-12-01.5,J2000,1.0000,,0.005,143.28,17.90,94.22,,,,2452975.07,2003-12-01.5,,,,,,,,,,,,,,,,,,PAR,,0,2003-12-01,2003-12-01,10,,,,,T,,,,,,,,
1002026,"     C/2003 X2 (SOHO)","2003 X2",SOHO,C,,,0,,,,,,,,,,,,,,,,,,,,SAO_2008,2452975.5,52975,2003-12-01.9,J2000,1.0000,,0.009,134.58,17.48,90.15,,,,2452975.49,2003-12-01.9,,,,,,,,,,,,,,,,,,PAR,,0,2003-12-01,2003-12-01,5,,,,,T,,,,,,,,
1002027,"     C/2003 X3 (SOHO)","2003 X3",SOHO,C,,,0,,,,,,,,,,,,,,,,,,,,SAO_2008,2452976.2,52976,2003-12-02.7,J2000,1.0000,,0.005,133.82,37.30,112.58,,,,2452976.20,2003-12-02.7,,,,,,,,,,,,,,,,,,PAR,,0,2003-12-02,2003-12-02,4,,,,,T,,,,,,,,
1002028,"     C/2003 X4 (SOHO)","2003 X4",SOHO,C,,,0,,,,,,,,,,,,,,,,,,,,SAO_2008,2452978.5,52978,2003-12-05.0,J2000,1.0000,,0.005,136.31,29.52,101.56,,,,2452978.54,2003-12-05.0,,,,,,,,,,,,,,,,,,PAR,,0,2003-12-04,2003-12-04,11,,,,,T,,,,,,,,
1002029,"     C/2003 X5 (SOHO)","2003 X5",SOHO,C,,,0,,,,,,,,,,,,,,,,,,,,SAO_2008,2452978.9,52978,2003-12-05.4,J2000,1.0000,,0.007,139.87,21.99,97.12,,,,2452978.91,2003-12-05.4,,,,,,,,,,,,,,,,,,PAR,,1,2003-12-04,2003-12-05,12,,,,,T,,,,,,,,
1002030,"     C/2003 X6 (SOHO)","2003 X6",SOHO,C,,,0,,,,,,,,,,,,,,,,,,,,SAO_2008,2452980.2,52980,2003-12-06.7,J2000,1.0000,,0.005,145.82,325.80,49.96,,,,2452980.25,2003-12-06.7,,,,,,,,,,,,,,,,,,PAR,,0,2003-12-06,2003-12-06,10,,,,,T,,,,,,,,
1002031,"     C/2003 X7 (SOHO)","2003 X7",SOHO,C,,,0,,,,,,,,,,,,,,,,,,,,SAO_2008,2452981.8,52981,2003-12-08.2,J2000,1.0000,,0.005,139.81,26.19,100.04,,,,2452981.78,2003-12-08.2,,,,,,,,,,,,,,,,,,PAR,,0,2003-12-07,2003-12-07,6,,,,,T,,,,,,,,
1002032,"     C/2003 X8 (SOHO)","2003 X8",SOHO,C,,,0,,,,,,,,,,,,,,,,,,,,SAO_2008,2452982.2,52982,2003-12-08.6,J2000,1.0000,,0.005,141.22,20.45,96.39,,,,2452982.18,2003-12-08.6,,,,,,,,,,,,,,,,,,PAR,,0,2003-12-08,2003-12-08,10,,,,,T,,,,,,,,
1002033,"     C/2003 X9 (SOHO)","2003 X9",SOHO,C,,,0,,,,,,,,,,,,,,,,,,,,SAO_2008,2452982.4,52982,2003-12-08.9,J2000,1.0000,,0.005,142.28,316.87,41.99,,,,2452982.44,2003-12-08.9,,,,,,,,,,,,,,,,,,PAR,,0,2003-12-08,2003-12-08,9,,,,,T,,,,,,,,
1002034,"     C/2003 X10 (SOHO)","2003 X10",SOHO,C,,,0,,,,,,,,,,,,,,,,,,,,SAO_2008,2452985.0,52985,2003-12-11.5,J2000,1.0000,,0.005,147.85,328.24,50.70,,,,2452985.03,2003-12-11.5,,,,,,,,,,,,,,,,,,PAR,,0,2003-12-11,2003-12-11,5,,,,,T,,,,,,,,
1002035,"     C/2003 X11 (SOHO)","2003 X11",SOHO,C,,,0,,,,,,,,,,,,,,,,,,,,SAO_2008,2452987.5,52987,2003-12-14.0,J2000,1.0000,,0.005,143.45,13.35,90.33,,,,2452987.50,2003-12-14.0,,,,,,,,,,,,,,,,,,PAR,,0,2003-12-13,2003-12-13,7,,,,,T,,,,,,,,
1002036,"     C/2003 Y1 (SOHO)","2003 Y1",SOHO,C,,,0,,,,,,,,,,,,,,,,,,,,SAO_2008,2452994.0,52994,2003-12-20.5,J2000,1.0000,,0.035,72.81,74.70,56.72,,,,2452994.00,2003-12-20.5,,,,,,,,,,,,,,,,,,PAR,,0,2003-12-20,2003-12-20,19,,,,,T,,,,,,,,
1002037,"     C/2003 Y2 (SOHO)","2003 Y2",SOHO,C,,,0,,,,,,,,,,,,,,,,,,,,SAO_2008,2452993.5,52993,2003-12-19.9,J2000,1.0000,,0.005,147.13,353.43,71.94,,,,2452993.49,2003-12-19.9,,,,,,,,,,,,,,,,,,PAR,,0,2003-12-19,2003-12-19,9,,,,,T,,,,,,,,
1002038,"     C/2003 Y3 (SOHO)","2003 Y3",SOHO,C,,,0,,,,,,,,,,,,,,,,,,,,SAO_2008,2452993.8,52993,2003-12-20.3,J2000,1.0000,,0.007,145.75,322.68,40.31,,,,2452993.80,2003-12-20.3,,,,,,,,,,,,,,,,,,PAR,,1,2003-12-19,2003-12-20,7,,,,,T,,,,,,,,
1002039,"     C/2003 Y4 (SOHO)","2003 Y4",SOHO,C,,,0,,,,,,,,,,,,,,,,,,,,SAO_2008,2452994.6,52994,2003-12-21.1,J2000,1.0000,,0.005,145.41,352.48,72.44,,,,2452994.60,2003-12-21.1,,,,,,,,,,,,,,,,,,PAR,,0,2003-12-20,2003-12-20,10,,,,,T,,,,,,,,
1002040,"     C/2003 Y5 (SOHO)","2003 Y5",SOHO,C,,,0,,,,,,,,,,,,,,,,,,,,SAO_2008,2452996.6,52996,2003-12-23.1,J2000,1.0000,,0.005,144.52,3.81,82.09,,,,2452996.65,2003-12-23.1,,,,,,,,,,,,,,,,,,PAR,,0,2003-12-22,2003-12-22,10,,,,,T,,,,,,,,
